ES'HAIL 2               
1 43700U 18090A   23342.57549215  .00000173  00000+0  00000+0 0  9993
2 43700   0.0171   5.2020 0001913 291.0664  13.8031  1.00274035 18430
FOX-1CLIFF (AO-95)      
1 43770U 18099N   23342.15563728  .00004106  00000+0  31428-3 0  9990
2 43770  97.5783  39.3267 0012100 298.0546  61.9455 15.02375953273709
ITASAT                  
1 43786U 18099AE  23342.15722133  .00003472  00000+0  27240-3 0  9996
2 43786  97.5466  39.9602 0016596 275.0960  84.8371 15.01479396273730
JY1SAT (JO-97)          
1 43803U 18099AX  23342.58750990  .00005614  00000+0  41542-3 0  9996
2 43803  97.5501  40.8129 0010147 234.2698 125.7585 15.03515744273873
UWE-4                   
1 43880U 18111E   23342.26117870  .00005279  00000+0  37360-3 0  9995
2 43880  97.6245 244.9112 0016107 308.8841  51.0948 15.05173615270525
JAISAT-1                
1 44419U 19038F   23342.52549450  .00035379  00000+0  78865-3 0  9994
2 44419  97.6835 331.6447 0014087  49.1365 311.1100 15.43404840245290
DUCHIFAT-3              
1 44854U 19089C   23342.54708564  .00007657  00000+0  46369-3 0  9990
2 44854  36.9588 126.4280 0008288 319.8838  40.1295 15.10188963219235
TIANYAN 01              
1 44881U 19093C   23342.53665797  .00000928  00000+0  12046-3 0  9993
2 44881  97.8489  57.9443 0013595 225.5326 134.4777 14.83058979214635
RS-44 & BREEZE-KM R/B   
1 44909U 19096E   23342.17705128  .00000015  00000+0  76547-5 0  9995
2 44909  82.5223 232.3243 0218038 139.9473 221.7938 12.79724290184410
BY70-2                  
1 45857U 20042B   23342.58986358  .00022629  00000+0  17720-2 0  9992
2 45857  97.9208  64.1371 0006657 144.2447 215.9224 15.01003946185590
SALSAT                  
1 46495U 20068K   23342.41756253  .00004491  00000+0  28018-3 0  9990
2 46495  97.7919 292.7097 0013029 245.5533 114.4337 15.09979790175349
RADFXSAT-2 (AO-109)     
1 47311U 21002C   23342.56386477  .00046197  00000+0  68291-3 0  9996
2 47311  60.6748 101.7769 0024814  39.8881 320.4038 15.54656912161233
UVSQ-SAT                
1 47438U 21006AB  23342.13346685  .00016927  00000+0  54806-3 0  9995
2 47438  97.3612  37.3277 0008157 176.6649 183.4649 15.32068888159206
LEDSAT                  
1 49069U 21073D   23342.50917056  .00007548  00000+0  36937-3 0  9992
2 49069  97.4646  50.6976 0020897 233.4522 126.4788 15.18287099127316
XW-3 (CAS-9)            
1 50466U 21131B   23342.55059904  .00000518  00000+0  18142-3 0  9992
2 50466  98.5427  63.4934 0003815 354.0550   6.0591 14.39232881102438
TEVEL-3                 
1 50988U 22002E   23342.46415624  .00024994  00000+0  72031-3 0  9995
2 50988  97.4123  49.1591 0005617 346.0801  14.0286 15.35705660105407
TEVEL-8                 
1 50989U 22002F   23342.55657372  .00024750  00000+0  71519-3 0  9994
2 50989  97.4141  49.3296 0005534 343.7031  16.4034 15.35624100105416
TEVEL-5                 
1 50998U 22002Q   23342.55092997  .00027346  00000+0  75261-3 0  9992
2 50998  97.4118  49.8944 0006344 335.8322  24.2624 15.37122340105468
TEVEL-6                 
1 50999U 22002R   23342.55013181  .00027145  00000+0  74752-3 0  9992
2 50999  97.4116  49.8828 0006323 335.3066  24.7874 15.37105204105467
TEVEL-1                 
1 51013U 22002AF  23342.54567738  .00025430  00000+0  73439-3 0  9997
2 51013  97.4116  49.1501 0005416 344.6382  15.4697 15.35637494105416
TEVEL-7                 
1 51062U 22002CG  23342.55423816  .00025146  00000+0  72548-3 0  9994
2 51062  97.4135  49.2973 0005544 343.7933  16.3133 15.35669899105418
TEVEL-4                 
1 51063U 22002CH  23342.56905209  .00024547  00000+0  71094-3 0  9996
2 51063  97.4134  49.2707 0005459 343.8862  16.2207 15.35554609105413
TEVEL-2                 
1 51069U 22002CP  23342.46495472  .00024855  00000+0  71595-3 0  9995
2 51069  97.4120  49.1272 0005563 345.7513  14.3572 15.35722008105403
GREENCUBE               
1 53106U 22080B   23332.09968023 -.00000003  00000+0  00000+0 0  9999
2 53106  70.1436 262.7414 0008227 151.4978 208.6132  6.42557248 32288
CYCLOPS (RS29S)         
1 53373U 22096D   23342.57237088  .00065436  00000+0  79079-3 0  9992
2 53373  97.3987 252.8401 0004287  79.3819 280.7921 15.60503481 74650
MONITOR-1 (RS32S)       
1 53374U 22096E   23342.59395522  .00066188  00000+0  89226-3 0  9993
2 53374  97.3928 252.2252 0003456  87.5257 272.6394 15.57600349 74626
KUZBASS-300 (RS34S)     
1 53375U 22096F   23342.59149836  .00036938  00000+0  66343-3 0  9994
2 53375  97.4008 250.9977 0002442  82.8601 277.2928 15.49793575 74530
UTMN (RS23S)            
1 53376U 22096G   23342.57427700  .00040060  00000+0  67481-3 0  9997
2 53376  97.3987 251.3034 0002838  74.3979 285.7587 15.51591894 74558
MIET-AIS (RS28S)        
1 53377U 22096H   23342.57978307  .00032305  00000+0  61615-3 0  9998
2 53377  97.4018 250.7407 0002508  81.6056 278.5479 15.48096987 74518
KAI-1 (RS26S)           
1 53378U 22096J   23342.60708491  .00026392  00000+0  56776-3 0  9999
2 53378  97.4044 249.9988 0002206  81.8638 278.2861 15.44621411 74463
ISOI (RS19S)            
1 53381U 22096M   23342.54598027  .00033747  00000+0  61597-3 0  9997
2 53381  97.4012 251.2079 0004508 104.4007 255.7744 15.49344533 74549
CUBESX-HSE-2 (RS21S)    
1 53383U 22096P   23342.59693804  .00041347  00000+0  69985-3 0  9997
2 53383  97.3990 251.5975 0005201 105.2495 254.9332 15.51439790 74574
SIREN (RS30S)           
1 53384U 22096Q   23342.58531613  .00029812  00000+0  58988-3 0  9990
2 53384  97.4026 250.7493 0004330 107.2451 252.9273 15.47042411 74519
GEOSCAN-EDELVEIS (RS20S)
1 53385U 22096R   23342.55850015  .00097496  00000+0  10082-2 0  9993
2 53385  97.3969 253.8763 0006806  93.5871 266.6166 15.64400248 74756
VIZARD (RS33S)          
1 53386U 22096S   23341.75120839  .00876274  37855-3  15679-2 0  9997
2 53386  97.3873 256.3432 0008460 117.8981 242.3155 16.01745824 74834
CAS-5A (FO-118)         
1 54684U 22167C   23342.53225602  .00012152  00000+0  56766-3 0  9997
2 54684  97.5821 119.8256 0012730  93.1519 267.1172 15.19884978 55101
STRATOSAT-TK 1 (RS52S)  
1 57167U 23091B   23342.54014630  .00006584  00000+0  44686-3 0  9991
2 57167  97.6436  31.7436 0018398  57.3623 302.9376 15.06608071 24653
UMKA 1 (RS40S)          
1 57172U 23091G   23342.53593492  .00003085  00000+0  22078-3 0  9998
2 57172  97.6436  31.5954 0019155  57.4008 302.9064 15.05027912 24643
CUBESX-HSE 3 (RS42S)    
1 57178U 23091N   23342.59653266  .00003949  00000+0  27839-3 0  9995
2 57178  97.6470  31.7490 0019875  52.2481 308.0542 15.05420456 24650
MONITOR-4 (RS57S)       
1 57182U 23091S   23342.60886812  .00003853  00000+0  27323-3 0  9999
2 57182  97.6461  31.7085 0020055  52.8033 307.5020 15.05211529 24650
MONITOR-2 (RS39S)       
1 57184U 23091U   23342.60482988  .00002744  00000+0  19472-3 0  9991
2 57184  97.6466  31.8755 0016078  48.0117 312.2476 15.05490748 24663
SVYATOBOR 1 (RS60S)     
1 57187U 23091X   23342.56276914  .00004447  00000+0  30726-3 0  9996
2 57187  97.6460  31.9327 0015348  45.0965 315.1505 15.06166615 24662
VIZARD-METEO (RS38S)    
1 57189U 23091Z   23342.57863610  .00004163  00000+0  28269-3 0  9998
2 57189  97.6450  32.0497 0014378  44.0639 316.1731 15.06858004 24675
NANOZOND 1 (RS49S)      
1 57190U 23091AA  23342.59077480  .00005604  00000+0  36930-3 0  9999
2 57190  97.6431  32.1294 0013178  50.4215 309.8174 15.07837427 24688
POLYTECH-UNIVERSE 3 (R*)
1 57191U 23091AB  23342.59389963  .00002441  00000+0  17402-3 0  9991
2 57191  97.6429  31.6691 0022068  62.7243 297.6228 15.05324300 24656
UTMN 2 (RS27S)          
1 57203U 23091AP  23342.59298848  .00003705  00000+0  25350-3 0  9991
2 57203  97.6456  32.0301 0014914  45.0432 315.2001 15.06639919 24672
ARCCUBE 1 (RS25S)       
1 57205U 23091AR  23342.58248753  .00006348  00000+0  41450-3 0  9997
2 57205  97.6407  32.1039 0013400  51.4162 308.8264 15.08118777 24685
KUZGTU 1 (RS47S)        
1 57217U 23091AV  23342.59471147  .00003708  00000+0  26191-3 0  9998
2 57217  97.6445  31.6992 0019796  53.4475 306.8570 15.05385548 24659
